[{"OBJECT_NAME":"FALCONSAT-6","OBJECT_ID":"2018-099BK","EPOCH":"2026-03-09T17:24:38.352096","MEAN_MOTION":15.26532865,"ECCENTRICITY":0.00143698,"INCLINATION":97.3865,"RA_OF_ASC_NODE":145.8165,"ARG_OF_PERICENTER":297.0944,"MEAN_ANOMALY":181.0714,"EPHEMERIS_TYPE":0,"CLASSIFICATION_TYPE":"U","NORAD_CAT_ID":43815,"ELEMENT_SET_NO":999,"REV_AT_EPOCH":39855,"BSTAR":0.00019476898,"MEAN_MOTION_DOT":5.029e-5,"MEAN_MOTION_DDOT":0},{"OBJECT_NAME":"STARLINK-30132","OBJECT_ID":"2023-067R","EPOCH":"2026-03-09T22:00:01.999584","MEAN_MOTION":15.21209439,"ECCENTRICITY":0.00015319,"INCLINATION":42.9992,"RA_OF_ASC_NODE":272.3711,"ARG_OF_PERICENTER":290.3973,"MEAN_ANOMALY":90.6394,"EPHEMERIS_TYPE":0,"CLASSIFICATION_TYPE":"U","NORAD_CAT_ID":56703,"ELEMENT_SET_NO":999,"REV_AT_EPOCH":573,"BSTAR":0.072253179,"MEAN_MOTION_DOT":0.01805399,"MEAN_MOTION_DDOT":0}]
